[{"OBJECT_NAME":"GLOBALSTAR M087","OBJECT_ID":"2022-064A","EPOCH":"2026-03-09T22:40:46.434432","MEAN_MOTION":12.62266918,"ECCENTRICITY":7.4e-5,"INCLINATION":52.0027,"RA_OF_ASC_NODE":4.5912,"ARG_OF_PERICENTER":85.9375,"MEAN_ANOMALY":274.1576,"EPHEMERIS_TYPE":0,"CLASSIFICATION_TYPE":"U","NORAD_CAT_ID":52888,"ELEMENT_SET_NO":999,"REV_AT_EPOCH":17860,"BSTAR":7.7608991e-5,"MEAN_MOTION_DOT":-9.0e-7,"MEAN_MOTION_DDOT":0},{"OBJECT_NAME":"COSMOS 2115","OBJECT_ID":"1990-114B","EPOCH":"2026-03-09T23:05:11.719680","MEAN_MOTION":12.63530743,"ECCENTRICITY":0.00043712,"INCLINATION":82.5637,"RA_OF_ASC_NODE":275.3049,"ARG_OF_PERICENTER":72.6479,"MEAN_ANOMALY":46.0063,"EPHEMERIS_TYPE":0,"CLASSIFICATION_TYPE":"U","NORAD_CAT_ID":21029,"ELEMENT_SET_NO":999,"REV_AT_EPOCH":62387,"BSTAR":5.3433581e-5,"MEAN_MOTION_DOT":2.0e-7,"MEAN_MOTION_DDOT":0}]
